IRIDIUM 63              
1 25286U 98021B   26022.64827172  .00000812  00000+0  26862-3 0  9999
2 25286  86.4007 350.0469 0001986  84.4903 275.6521 14.36777480455356
IRIDIUM 69              
1 25319U 98026A   26022.88631826  .00000785  00000+0  23704-3 0  9997
2 25319  86.3988   2.5391 0003816  50.9805 309.1734 14.41259161454700
IRIDIUM 71              
1 25320U 98026B   26022.87037061  .00000862  00000+0  26045-3 0  9996
2 25320  86.3993 357.2167 0004298  85.1812 274.9879 14.41352731455237
IRIDIUM 73              
1 25344U 98032C   26022.78252574  .00001203  00000+0  29268-3 0  9997
2 25344  86.4439 313.5516 0002084  67.0151 293.1274 14.52058762462428
IRIDIUM 82              
1 25467U 98051A   26022.87526325  .00054788  00000+0  88312-3 0  9993
2 25467  86.3609   0.3289 0057403 168.2654 191.9960 15.50800941457768
